start=new Date('2022-12-22T00:00:00.000Z').valueOf();
sats=[{"ELEMENT_SET_NO":"999","DECAY_DATE":null,"REF_FRAME":"TEME","TIME_SYSTEM":"UTC","ARG_OF_PERICENTER":"58.2082","RA_OF_ASC_NODE":"142.2709","MEAN_MOTION_DOT":"0.00000078","RCS_SIZE":"LARGE","CLASSIFICATION_TYPE":"U","NORAD_CAT_ID":"47912","EPOCH":"2022-12-21T14:36:04.732704","ECCENTRICITY":"0.00016970","MEAN_MOTION_DDOT":"0.0000000000000","GP_ID":"221121871","MEAN_MOTION":"15.06400151","MEAN_ANOMALY":"301.9072","PERIOD":"95.592","MEAN_ELEMENT_THEORY":"SGP4","EPHEMERIS_TYPE":"0","FILE":"3716722","CENTER_NAME":"EARTH","TLE_LINE2":"2 47912  53.0529 142.2709 0001697  58.2082 301.9072 15.06400151 98745","OBJECT_ID":"2021-021BE","SITE":"AFETR","OBJECT_NAME":"STARLINK-2372","INCLINATION":"53.0529","SEMIMAJOR_AXIS":"6925.348","REV_AT_EPOCH":"9874","OBJECT_TYPE":"PAYLOAD","LAUNCH_DATE":"2021-03-14","PERIAPSIS":"546.038","BSTAR":"0.00002411800000","TLE_LINE1":"1 47912U 21021BE  22355.60838811  .00000078  00000-0  24118-4 0  9996","COUNTRY_CODE":"US","APOAPSIS":"548.388"},{"SEMIMAJOR_AXIS":"6925.337","INCLINATION":"53.0546","SITE":"AFETR","OBJECT_NAME":"STARLINK-2374","OBJECT_ID":"2021-021BF","TLE_LINE2":"2 47913  53.0546 152.1256 0001661  64.3287 295.7874 15.06403740 98622","CENTER_NAME":"EARTH","FILE":"3716722","APOAPSIS":"548.352","COUNTRY_CODE":"US","BSTAR":"0.00006168100000","TLE_LINE1":"1 47913U 21021BF  22355.74853613  .00000637  00000-0  61681-4 0  9996","PERIAPSIS":"546.052","LAUNCH_DATE":"2021-03-14","OBJECT_TYPE":"PAYLOAD","REV_AT_EPOCH":"9862","EPOCH":"2022-12-21T17:57:53.521632","NORAD_CAT_ID":"47913","RCS_SIZE":"LARGE","CLASSIFICATION_TYPE":"U","RA_OF_ASC_NODE":"152.1256","ARG_OF_PERICENTER":"64.3287","MEAN_MOTION_DOT":"0.00000637","TIME_SYSTEM":"UTC","ELEMENT_SET_NO":"999","REF_FRAME":"TEME","DECAY_DATE":null,"MEAN_ELEMENT_THEORY":"SGP4","EPHEMERIS_TYPE":"0","PERIOD":"95.592","MEAN_ANOMALY":"295.7874","MEAN_MOTION_DDOT":"0.0000000000000","MEAN_MOTION":"15.06403740","GP_ID":"221122371","ECCENTRICITY":"0.00016610"},{"MEAN_MOTION_DDOT":"0.0000000000000","GP_ID":"221121888","MEAN_MOTION":"15.06398938","ECCENTRICITY":"0.00015580","PERIOD":"95.592","MEAN_ANOMALY":"278.3387","MEAN_ELEMENT_THEORY":"SGP4","EPHEMERIS_TYPE":"0","ELEMENT_SET_NO":"999","REF_FRAME":"TEME","DECAY_DATE":null,"RA_OF_ASC_NODE":"152.1619","ARG_OF_PERICENTER":"81.7779","MEAN_MOTION_DOT":"0.00001234","TIME_SYSTEM":"UTC","RCS_SIZE":"LARGE","CLASSIFICATION_TYPE":"U","EPOCH":"2022-12-21T15:13:17.479776","NORAD_CAT_ID":"47914","OBJECT_TYPE":"PAYLOAD","LAUNCH_DATE":"2021-03-14","REV_AT_EPOCH":"9861","BSTAR":"0.00010175000000","TLE_LINE1":"1 47914U 21021BG  22355.63423009  .00001234  00000-0  10175-3 0  9992","PERIAPSIS":"546.138","APOAPSIS":"548.296","COUNTRY_CODE":"US","CENTER_NAME":"EARTH","FILE":"3716723","TLE_LINE2":"2 47914  53.0543 152.1619 0001558  81.7779 278.3387 15.06398938 98614","SITE":"AFETR","OBJECT_NAME":"STARLINK-2375","OBJECT_ID":"2021-021BG","SEMIMAJOR_AXIS":"6925.352","INCLINATION":"53.0543"},{"APOAPSIS":"547.988","COUNTRY_CODE":"US","BSTAR":"0.00011859000000","TLE_LINE1":"1 47915U 21021BH  22355.16839822  .00001486  00000-0  11859-3 0  9994","PERIAPSIS":"546.395","LAUNCH_DATE":"2021-03-14","OBJECT_TYPE":"PAYLOAD","REV_AT_EPOCH":"9910","SEMIMAJOR_AXIS":"6925.327","INCLINATION":"53.0556","SITE":"AFETR","OBJECT_NAME":"STARLINK-2376","OBJECT_ID":"2021-021BH","TLE_LINE2":"2 47915  53.0556 149.2464 0001150 107.0963 253.0151 15.06407186 99109","CENTER_NAME":"EARTH","FILE":"3716551","MEAN_ELEMENT_THEORY":"SGP4","EPHEMERIS_TYPE":"0","PERIOD":"95.592","MEAN_ANOMALY":"253.0151","MEAN_MOTION_DDOT":"0.0000000000000","MEAN_MOTION":"15.06407186","GP_ID":"221116139","ECCENTRICITY":"0.00011500","EPOCH":"2022-12-21T04:02:29.606208","NORAD_CAT_ID":"47915","RCS_SIZE":"LARGE","CLASSIFICATION_TYPE":"U","RA_OF_ASC_NODE":"149.2464","ARG_OF_PERICENTER":"107.0963","MEAN_MOTION_DOT":"0.00001486","TIME_SYSTEM":"UTC","ELEMENT_SET_NO":"999","DECAY_DATE":null,"REF_FRAME":"TEME"},{"TIME_SYSTEM":"UTC","RA_OF_ASC_NODE":"132.8850","ARG_OF_PERICENTER":"64.6715","MEAN_MOTION_DOT":"-0.00001130","ELEMENT_SET_NO":"999","DECAY_DATE":null,"REF_FRAME":"TEME","NORAD_CAT_ID":"47916","EPOCH":"2022-12-21T11:22:23.035008","RCS_SIZE":"LARGE","CLASSIFICATION_TYPE":"U","ECCENTRICITY":"0.00014270","MEAN_MOTION_DDOT":"0.0000000000000","GP_ID":"221087434","MEAN_MOTION":"15.06397689","MEAN_ELEMENT_THEORY":"SGP4","EPHEMERIS_TYPE":"0","MEAN_ANOMALY":"295.4421","PERIOD":"95.592","TLE_LINE2":"2 47916  53.0532 132.8850 0001427  64.6715 295.4421 15.06397689 98870","FILE":"3716127","CENTER_NAME":"EARTH","INCLINATION":"53.0532","SEMIMAJOR_AXIS":"6925.356","OBJECT_ID":"2021-021BJ","SITE":"AFETR","OBJECT_NAME":"STARLINK-2378","PERIAPSIS":"546.232","BSTAR":"-0.00005694900000","TLE_LINE1":"1 47916U 21021BJ  22355.47387772 -.00001130  00000-0 -56949-4 0  9999","REV_AT_EPOCH":"9887","OBJECT_TYPE":"PAYLOAD","LAUNCH_DATE":"2021-03-14","COUNTRY_CODE":"US","APOAPSIS":"548.209"},{"LAUNCH_DATE":"2021-03-14","OBJECT_TYPE":"PAYLOAD","REV_AT_EPOCH":"9875","TLE_LINE1":"1 47917U 21021BK  22355.61303217 -.00001867  00000-0 -10647-3 0  9999","BSTAR":"-0.00010647000000","PERIAPSIS":"546.116","APOAPSIS":"548.290","COUNTRY_CODE":"US","CENTER_NAME":"EARTH","FILE":"3716746","TLE_LINE2":"2 47917  53.0547 142.2457 0001570  80.2485 279.8681 15.06403462 98750","OBJECT_NAME":"STARLINK-2397","SITE":"AFETR","OBJECT_ID":"2021-021BK","SEMIMAJOR_AXIS":"6925.338","INCLINATION":"53.0547","MEAN_MOTION":"15.06403462","GP_ID":"221122064","MEAN_MOTION_DDOT":"0.0000000000000","ECCENTRICITY":"0.00015700","PERIOD":"95.592","MEAN_ANOMALY":"279.8681","EPHEMERIS_TYPE":"0","MEAN_ELEMENT_THEORY":"SGP4","DECAY_DATE":null,"REF_FRAME":"TEME","ELEMENT_SET_NO":"999","MEAN_MOTION_DOT":"-0.00001867","RA_OF_ASC_NODE":"142.2457","ARG_OF_PERICENTER":"80.2485","TIME_SYSTEM":"UTC","CLASSIFICATION_TYPE":"U","RCS_SIZE":"LARGE","EPOCH":"2022-12-21T14:42:45.979488","NORAD_CAT_ID":"47917"},{"PERIOD":"95.593","MEAN_ANOMALY":"296.4249","MEAN_ELEMENT_THEORY":"SGP4","EPHEMERIS_TYPE":"0","MEAN_MOTION_DDOT":"0.0000000000000","MEAN_MOTION":"15.06388392","GP_ID":"221122062","ECCENTRICITY":"0.00012610","RCS_SIZE":"LARGE","CLASSIFICATION_TYPE":"U","EPOCH":"2022-12-21T16:28:54.862176","NORAD_CAT_ID":"47918","ELEMENT_SET_NO":"999","REF_FRAME":"TEME","DECAY_DATE":null,"RA_OF_ASC_NODE":"141.9312","ARG_OF_PERICENTER":"63.6869","MEAN_MOTION_DOT":"0.00000507","TIME_SYSTEM":"UTC","APOAPSIS":"548.122","COUNTRY_CODE":"US","LAUNCH_DATE":"2021-03-14","OBJECT_TYPE":"PAYLOAD","REV_AT_EPOCH":"9876","BSTAR":"0.00005293500000","TLE_LINE1":"1 47918U 21021BL  22355.68674609  .00000507  00000-0  52935-4 0  9998","PERIAPSIS":"546.376","SITE":"AFETR","OBJECT_NAME":"STARLINK-2398","OBJECT_ID":"2021-021BL","SEMIMAJOR_AXIS":"6925.384","INCLINATION":"53.0536","CENTER_NAME":"EARTH","FILE":"3716746","TLE_LINE2":"2 47918  53.0536 141.9312 0001261  63.6869 296.4249 15.06388392 98763"},{"APOAPSIS":"548.141","COUNTRY_CODE":"US","OBJECT_TYPE":"PAYLOAD","LAUNCH_DATE":"2021-03-14","REV_AT_EPOCH":"9859","BSTAR":"0.00006658000000","TLE_LINE1":"1 47919U 21021BM  22355.60473331  .00000710  00000-0  66580-4 0  9997","PERIAPSIS":"546.319","SITE":"AFETR","OBJECT_NAME":"STARLINK-2405","OBJECT_ID":"2021-021BM","SEMIMAJOR_AXIS":"6925.365","INCLINATION":"53.0542","CENTER_NAME":"EARTH","FILE":"3716746","TLE_LINE2":"2 47919  53.0542 152.2962 0001316  84.3542 275.7597 15.06394629 98593","PERIOD":"95.592","MEAN_ANOMALY":"275.7597","MEAN_ELEMENT_THEORY":"SGP4","EPHEMERIS_TYPE":"0","MEAN_MOTION_DDOT":"0.0000000000000","GP_ID":"221122562","MEAN_MOTION":"15.06394629","ECCENTRICITY":"0.00013160","RCS_SIZE":"LARGE","CLASSIFICATION_TYPE":"U","EPOCH":"2022-12-21T14:30:48.957984","NORAD_CAT_ID":"47919","ELEMENT_SET_NO":"999","REF_FRAME":"TEME","DECAY_DATE":null,"ARG_OF_PERICENTER":"84.3542","RA_OF_ASC_NODE":"152.2962","MEAN_MOTION_DOT":"0.00000710","TIME_SYSTEM":"UTC"},{"OBJECT_NAME":"STARLINK-2087","SITE":"AFETR","OBJECT_ID":"2021-024A","SEMIMAJOR_AXIS":"6925.348","INCLINATION":"53.0515","CENTER_NAME":"EARTH","FILE":"3716551","TLE_LINE2":"2 47977  53.0515 198.7530 0001532  79.4899 280.6262 15.06400345 97690","APOAPSIS":"548.273","COUNTRY_CODE":"US","LAUNCH_DATE":"2021-03-24","OBJECT_TYPE":"PAYLOAD","REV_AT_EPOCH":"9769","TLE_LINE1":"1 47977U 21024A   22355.28177026  .00004100  00000-0  29401-3 0  9997","BSTAR":"0.00029401000000","PERIAPSIS":"546.152","CLASSIFICATION_TYPE":"U","RCS_SIZE":"LARGE","EPOCH":"2022-12-21T06:45:44.950464","NORAD_CAT_ID":"47977","REF_FRAME":"TEME","DECAY_DATE":null,"ELEMENT_SET_NO":"999","MEAN_MOTION_DOT":"0.00004100","RA_OF_ASC_NODE":"198.7530","ARG_OF_PERICENTER":"79.4899","TIME_SYSTEM":"UTC","PERIOD":"95.592","MEAN_ANOMALY":"280.6262","EPHEMERIS_TYPE":"0","MEAN_ELEMENT_THEORY":"SGP4","MEAN_MOTION":"15.06400345","GP_ID":"221116897","MEAN_MOTION_DDOT":"0.0000000000000","ECCENTRICITY":"0.00015320"},{"PERIOD":"95.593","MEAN_ANOMALY":"278.5233","MEAN_ELEMENT_THEORY":"SGP4","EPHEMERIS_TYPE":"0","MEAN_MOTION_DDOT":"0.0000000000000","MEAN_MOTION":"15.06392930","GP_ID":"221117118","ECCENTRICITY":"0.00014260","RCS_SIZE":"LARGE","CLASSIFICATION_TYPE":"U","EPOCH":"2022-12-21T13:38:24.525888","NORAD_CAT_ID":"47978","ELEMENT_SET_NO":"999","REF_FRAME":"TEME","DECAY_DATE":null,"ARG_OF_PERICENTER":"81.5917","RA_OF_ASC_NODE":"207.4546","MEAN_MOTION_DOT":"-0.00000553","TIME_SYSTEM":"UTC","APOAPSIS":"548.223","COUNTRY_CODE":"US","OBJECT_TYPE":"PAYLOAD","LAUNCH_DATE":"2021-03-24","REV_AT_EPOCH":"9759","BSTAR":"-0.00001824800000","TLE_LINE1":"1 47978U 21024B   22355.56833942 -.00000553  00000-0 -18248-4 0  9993","PERIAPSIS":"546.248","SITE":"AFETR","OBJECT_NAME":"STARLINK-1647","OBJECT_ID":"2021-024B","SEMIMAJOR_AXIS":"6925.370","INCLINATION":"53.0552","CENTER_NAME":"EARTH","FILE":"3716551","TLE_LINE2":"2 47978  53.0552 207.4546 0001426  81.5917 278.5233 15.06392930 97597"}];
